{"type":"FeatureCollection","name":"clas_inside_network_polygons_v1.0.0","properties":{"source":"pntmoni-web/scripts/figures/v1.0.0/plot_map.py (VERTEX) + clas_grid.def","definition":"CLAS inside-network area per methodology v1.0.0 (fig-02-inside-outside)"},"features":[{"type":"Feature","properties":{"netid":3},"geometry":{"type":"Polygon","coordinates":[[[130.16,32.08],[130.16,32.62],[129.5,33.16],[128.84,32.62],[128.84,33.16],[129.5,33.7],[129.5,34.23],[130.16,33.7],[130.82,33.7],[131.47,33.7],[131.47,33.16],[131.47,32.62],[131.47,32.08],[131.47,31.54],[131.14,31.0],[131.14,30.46],[130.49,30.46],[130.49,31.0],[130.16,31.54],[129.5,31.81],[130.16,32.08]]]}},{"type":"Feature","properties":{"netid":4},"geometry":{"type":"Polygon","coordinates":[[[132.13,33.16],[132.79,32.62],[133.45,33.16],[134.11,33.16],[134.76,33.7],[134.76,34.23],[134.11,34.23],[133.45,34.23],[132.79,34.23],[132.13,33.7],[132.13,33.16]]]}},{"type":"Feature","properties":{"netid":5},"geometry":{"type":"Polygon","coordinates":[[[131.47,34.23],[130.82,34.23],[131.47,34.77],[132.13,34.77],[132.79,35.31],[133.45,35.31],[134.11,35.31],[134.11,34.77],[133.45,34.77],[132.79,34.77],[132.13,34.23],[131.47,34.23]]]}},{"type":"Feature","properties":{"netid":6},"geometry":{"type":"Polygon","coordinates":[[[137.4,36.39],[137.4,35.85],[137.4,35.31],[137.4,34.77],[136.74,34.23],[136.08,33.7],[135.42,33.7],[135.42,34.23],[134.76,34.77],[134.76,35.31],[134.76,35.85],[135.42,35.85],[136.08,36.39],[136.74,36.93],[136.74,37.47],[137.4,37.47],[137.4,36.93],[137.4,36.39]]]}},{"type":"Feature","properties":{"netid":7},"geometry":{"type":"Polygon","coordinates":[[[138.05,35.31],[138.05,34.77],[138.71,34.77],[139.04,34.23],[139.7,34.23],[140.03,34.77],[140.69,35.31],[140.69,35.85],[140.69,36.39],[140.03,36.39],[139.37,36.39],[138.71,36.39],[138.05,36.39],[138.05,35.85],[138.05,35.31]]]}},{"type":"Feature","properties":{"netid":8},"geometry":{"type":"Polygon","coordinates":[[[138.71,38.01],[139.37,38.01],[139.37,38.55],[140.03,38.55],[140.69,38.55],[141.34,38.55],[140.69,38.01],[140.69,37.47],[140.69,36.93],[140.03,36.93],[139.37,36.93],[138.71,36.93],[138.05,36.93],[138.71,37.47],[138.71,38.01]]]}},{"type":"Feature","properties":{"netid":9},"geometry":{"type":"Polygon","coordinates":[[[140.03,39.62],[140.03,39.09],[140.69,39.09],[141.34,39.09],[142.0,39.09],[142.0,39.62],[142.0,40.16],[141.34,40.7],[141.34,41.24],[140.69,41.24],[140.03,41.24],[140.03,40.7],[140.03,40.16],[140.03,39.62]]]}},{"type":"Feature","properties":{"netid":10},"geometry":{"type":"Polygon","coordinates":[[[143.32,41.78],[142.66,42.32],[142.0,42.32],[141.34,42.32],[141.34,41.78],[140.69,41.78],[140.03,41.78],[139.37,42.32],[140.03,42.86],[140.69,43.4],[141.34,43.94],[142.0,43.94],[142.66,43.4],[143.32,42.86],[143.32,42.32],[143.32,41.78]]]}},{"type":"Feature","properties":{"netid":11},"geometry":{"type":"Polygon","coordinates":[[[144.63,43.94],[145.29,43.94],[145.29,43.4],[144.63,42.86],[143.98,42.86],[143.32,43.4],[142.66,43.94],[142.0,44.48],[142.0,45.01],[141.34,45.28],[142.0,45.55],[142.66,45.01],[143.32,44.48],[143.98,43.94],[144.63,43.94]]]}}]}